[{"OBJECT_NAME":"STARLINK-34046","OBJECT_ID":"2025-102P","EPOCH":"2026-03-09T12:40:58.076544","MEAN_MOTION":14.98301012,"ECCENTRICITY":0.00040357,"INCLINATION":70.0013,"RA_OF_ASC_NODE":114.9216,"ARG_OF_PERICENTER":239.0821,"MEAN_ANOMALY":120.9941,"EPHEMERIS_TYPE":0,"CLASSIFICATION_TYPE":"U","NORAD_CAT_ID":64035,"ELEMENT_SET_NO":999,"REV_AT_EPOCH":4570,"BSTAR":-0.00069639287,"MEAN_MOTION_DOT":-8.387e-5,"MEAN_MOTION_DDOT":0},{"OBJECT_NAME":"PEGASUS DEB","OBJECT_ID":"1994-029AFH","EPOCH":"2026-03-05T17:45:37.026432","MEAN_MOTION":14.51722311,"ECCENTRICITY":0.02342531,"INCLINATION":81.9261,"RA_OF_ASC_NODE":220.9081,"ARG_OF_PERICENTER":300.5844,"MEAN_ANOMALY":57.2427,"EPHEMERIS_TYPE":0,"CLASSIFICATION_TYPE":"U","NORAD_CAT_ID":39322,"ELEMENT_SET_NO":999,"REV_AT_EPOCH":66781,"BSTAR":0.00070242434,"MEAN_MOTION_DOT":4.058e-5,"MEAN_MOTION_DDOT":0}]
